METOP-B                 
1 38771U 12049A   26088.15445016  .00000121  00000+0  75061-4 0  9998
2 38771  98.6599 141.2176 0002057 189.0347 171.0794 14.21424584701891
SARAL                   
1 39086U 13009A   26088.15404936  .00000149  00000+0  70671-4 0  9993
2 39086  98.5564 275.7278 0002482 135.3618 224.7767 14.32834809684146
METOP-C                 
1 43689U 18087A   26088.17804210  .00000138  00000+0  82705-4 0  9998
2 43689  98.6724 149.2164 0001957  73.2484 286.8908 14.21503381383468
OTB-3-GAZELLE           
1 54023U 22127A   26088.23026173  .00000219  00000+0  78881-4 0  9993
2 54023  98.3925  81.1644 0014339  71.6008 288.6740 14.42643987182833
EOS-6 (OCEANSAT-3)      
1 54361U 22158A   26088.22633199  .00000435  00000+0  13172-3 0  9994
2 54361  98.3482 187.5048 0001356 143.6127 216.5158 14.46975421176271
KINEIS-1B               
1 60079U 24114A   26088.10084903  .00001313  00000+0  17854-3 0  9998
2 60079  97.9902 112.6538 0002682  31.2181 328.9190 14.80468977 95550
KINEIS-1C               
1 60081U 24114C   26088.13468424  .00001719  00000+0  23165-3 0  9990
2 60081  97.9921 112.5171 0002536  92.0091 268.1411 14.80468244 95535
KINEIS-1D               
1 60082U 24114D   26088.12830822  .00000833  00000+0  12800-3 0  9995
2 60082  97.9949 109.1222 0002907  93.2826 266.8717 14.76147108 95314
KINEIS-1E               
1 60083U 24114E   26086.59644626  .00000317  00000+0  48266-4 0  9993
2 60083  97.9711 111.0440 0002475  98.8882 261.2610 14.80538337 95313
KINEIS-1A               
1 60084U 24114F   26088.18484030  .00000304  00000+0  46582-4 0  9997
2 60084  97.9677 112.7446 0004148  51.6331 308.5253 14.80500093 95556
KINEIS-3C               
1 61220U 24172A   26088.21800067  .00003128  00000+0  50304-3 0  9993
2 61220  98.0347 178.9879 0002972  70.3414 289.8114 14.72273793 81302
KINEIS-3D               
1 61221U 24172B   26088.21129035  .00003130  00000+0  50325-3 0  9999
2 61221  98.0345 178.9924 0002255  76.2378 283.9080 14.72279710 81582
KINEIS-3E               
1 61222U 24172C   26088.19406296  .00001362  00000+0  22355-3 0  9991
2 61222  98.0345 178.9666 0001454  89.2334 270.9040 14.72275128 81583
KINEIS-3A               
1 61223U 24172D   26088.17747255  .00003018  00000+0  48523-3 0  9998
2 61223  98.0336 179.0453 0001771  30.5933 329.5377 14.72307533 81003
KINEIS-3B               
1 61224U 24172E   26088.22860487  .00003045  00000+0  48956-3 0  9998
2 61224  98.0334 179.1256 0001797  21.8100 338.3184 14.72294324 81581
KINEIS-5C               
1 62081U 24219A   26088.20403752  .00000813  00000+0  13615-3 0  9992
2 62081  97.9342 249.2299 0004058 123.6962 236.4632 14.72340800 71986
KINEIS-5D               
1 62082U 24219B   26088.17032626 -.00000861  00000+0 -12854-3 0  9996
2 62082  97.9306 249.1596 0004002 134.3372 225.8164 14.72331119 71984
