[{"OBJECT_NAME":"METOP-B","OBJECT_ID":"2012-049A","EPOCH":"2026-03-29T03:42:24.493824","MEAN_MOTION":14.21424584,"ECCENTRICITY":0.0002057,"INCLINATION":98.6599,"RA_OF_ASC_NODE":141.2176,"ARG_OF_PERICENTER":189.0347,"MEAN_ANOMALY":171.0794,"EPHEMERIS_TYPE":0,"CLASSIFICATION_TYPE":"U","NORAD_CAT_ID":38771,"ELEMENT_SET_NO":999,"REV_AT_EPOCH":70189,"BSTAR":7.5061e-5,"MEAN_MOTION_DOT":1.21e-6,"MEAN_MOTION_DDOT":0},{"OBJECT_NAME":"SARAL","OBJECT_ID":"2013-009A","EPOCH":"2026-03-29T03:41:49.864704","MEAN_MOTION":14.32834809,"ECCENTRICITY":0.0002482,"INCLINATION":98.5564,"RA_OF_ASC_NODE":275.7278,"ARG_OF_PERICENTER":135.3618,"MEAN_ANOMALY":224.7767,"EPHEMERIS_TYPE":0,"CLASSIFICATION_TYPE":"U","NORAD_CAT_ID":39086,"ELEMENT_SET_NO":999,"REV_AT_EPOCH":68414,"BSTAR":7.0671e-5,"MEAN_MOTION_DOT":1.49e-6,"MEAN_MOTION_DDOT":0},{"OBJECT_NAME":"METOP-C","OBJECT_ID":"2018-087A","EPOCH":"2026-03-29T04:16:22.837440","MEAN_MOTION":14.21503381,"ECCENTRICITY":0.0001957,"INCLINATION":98.6724,"RA_OF_ASC_NODE":149.2164,"ARG_OF_PERICENTER":73.2484,"MEAN_ANOMALY":286.8908,"EPHEMERIS_TYPE":0,"CLASSIFICATION_TYPE":"U","NORAD_CAT_ID":43689,"ELEMENT_SET_NO":999,"REV_AT_EPOCH":38346,"BSTAR":8.2705e-5,"MEAN_MOTION_DOT":1.38e-6,"MEAN_MOTION_DDOT":0},{"OBJECT_NAME":"OTB-3-GAZELLE","OBJECT_ID":"2022-127A","EPOCH":"2026-03-29T05:31:34.613472","MEAN_MOTION":14.42643987,"ECCENTRICITY":0.0014339,"INCLINATION":98.3925,"RA_OF_ASC_NODE":81.1644,"ARG_OF_PERICENTER":71.6008,"MEAN_ANOMALY":288.674,"EPHEMERIS_TYPE":0,"CLASSIFICATION_TYPE":"U","NORAD_CAT_ID":54023,"ELEMENT_SET_NO":999,"REV_AT_EPOCH":18283,"BSTAR":7.8881e-5,"MEAN_MOTION_DOT":2.19e-6,"MEAN_MOTION_DDOT":0},{"OBJECT_NAME":"EOS-6 (OCEANSAT-3)","OBJECT_ID":"2022-158A","EPOCH":"2026-03-29T05:25:55.083936","MEAN_MOTION":14.46975421,"ECCENTRICITY":0.0001356,"INCLINATION":98.3482,"RA_OF_ASC_NODE":187.5048,"ARG_OF_PERICENTER":143.6127,"MEAN_ANOMALY":216.5158,"EPHEMERIS_TYPE":0,"CLASSIFICATION_TYPE":"U","NORAD_CAT_ID":54361,"ELEMENT_SET_NO":999,"REV_AT_EPOCH":17627,"BSTAR":0.00013172,"MEAN_MOTION_DOT":4.35e-6,"MEAN_MOTION_DDOT":0},{"OBJECT_NAME":"KINEIS-1B","OBJECT_ID":"2024-114A","EPOCH":"2026-03-29T02:25:13.356192","MEAN_MOTION":14.80468977,"ECCENTRICITY":0.0002682,"INCLINATION":97.9902,"RA_OF_ASC_NODE":112.6538,"ARG_OF_PERICENTER":31.2181,"MEAN_ANOMALY":328.919,"EPHEMERIS_TYPE":0,"CLASSIFICATION_TYPE":"U","NORAD_CAT_ID":60079,"ELEMENT_SET_NO":999,"REV_AT_EPOCH":9555,"BSTAR":0.00017854,"MEAN_MOTION_DOT":1.313e-5,"MEAN_MOTION_DDOT":0},{"OBJECT_NAME":"KINEIS-1C","OBJECT_ID":"2024-114C","EPOCH":"2026-03-29T03:13:56.718336","MEAN_MOTION":14.80468244,"ECCENTRICITY":0.0002536,"INCLINATION":97.9921,"RA_OF_ASC_NODE":112.5171,"ARG_OF_PERICENTER":92.0091,"MEAN_ANOMALY":268.1411,"EPHEMERIS_TYPE":0,"CLASSIFICATION_TYPE":"U","NORAD_CAT_ID":60081,"ELEMENT_SET_NO":999,"REV_AT_EPOCH":9553,"BSTAR":0.00023165,"MEAN_MOTION_DOT":1.719e-5,"MEAN_MOTION_DDOT":0},{"OBJECT_NAME":"KINEIS-1D","OBJECT_ID":"2024-114D","EPOCH":"2026-03-29T03:04:45.830208","MEAN_MOTION":14.76147108,"ECCENTRICITY":0.0002907,"INCLINATION":97.9949,"RA_OF_ASC_NODE":109.1222,"ARG_OF_PERICENTER":93.2826,"MEAN_ANOMALY":266.8717,"EPHEMERIS_TYPE":0,"CLASSIFICATION_TYPE":"U","NORAD_CAT_ID":60082,"ELEMENT_SET_NO":999,"REV_AT_EPOCH":9531,"BSTAR":0.000128,"MEAN_MOTION_DOT":8.33e-6,"MEAN_MOTION_DDOT":0},{"OBJECT_NAME":"KINEIS-1E","OBJECT_ID":"2024-114E","EPOCH":"2026-03-27T14:18:52.956864","MEAN_MOTION":14.80538337,"ECCENTRICITY":0.0002475,"INCLINATION":97.9711,"RA_OF_ASC_NODE":111.044,"ARG_OF_PERICENTER":98.8882,"MEAN_ANOMALY":261.261,"EPHEMERIS_TYPE":0,"CLASSIFICATION_TYPE":"U","NORAD_CAT_ID":60083,"ELEMENT_SET_NO":999,"REV_AT_EPOCH":9531,"BSTAR":4.8266e-5,"MEAN_MOTION_DOT":3.17e-6,"MEAN_MOTION_DDOT":0},{"OBJECT_NAME":"KINEIS-1A","OBJECT_ID":"2024-114F","EPOCH":"2026-03-29T04:26:10.201920","MEAN_MOTION":14.80500093,"ECCENTRICITY":0.0004148,"INCLINATION":97.9677,"RA_OF_ASC_NODE":112.7446,"ARG_OF_PERICENTER":51.6331,"MEAN_ANOMALY":308.5253,"EPHEMERIS_TYPE":0,"CLASSIFICATION_TYPE":"U","NORAD_CAT_ID":60084,"ELEMENT_SET_NO":999,"REV_AT_EPOCH":9555,"BSTAR":4.6582e-5,"MEAN_MOTION_DOT":3.04e-6,"MEAN_MOTION_DDOT":0},{"OBJECT_NAME":"KINEIS-3C","OBJECT_ID":"2024-172A","EPOCH":"2026-03-29T05:13:55.257888","MEAN_MOTION":14.72273793,"ECCENTRICITY":0.0002972,"INCLINATION":98.0347,"RA_OF_ASC_NODE":178.9879,"ARG_OF_PERICENTER":70.3414,"MEAN_ANOMALY":289.8114,"EPHEMERIS_TYPE":0,"CLASSIFICATION_TYPE":"U","NORAD_CAT_ID":61220,"ELEMENT_SET_NO":999,"REV_AT_EPOCH":8130,"BSTAR":0.00050304,"MEAN_MOTION_DOT":3.128e-5,"MEAN_MOTION_DDOT":0},{"OBJECT_NAME":"KINEIS-3D","OBJECT_ID":"2024-172B","EPOCH":"2026-03-29T05:04:15.486240","MEAN_MOTION":14.7227971,"ECCENTRICITY":0.0002255,"INCLINATION":98.0345,"RA_OF_ASC_NODE":178.9924,"ARG_OF_PERICENTER":76.2378,"MEAN_ANOMALY":283.908,"EPHEMERIS_TYPE":0,"CLASSIFICATION_TYPE":"U","NORAD_CAT_ID":61221,"ELEMENT_SET_NO":999,"REV_AT_EPOCH":8158,"BSTAR":0.00050325,"MEAN_MOTION_DOT":3.13e-5,"MEAN_MOTION_DDOT":0},{"OBJECT_NAME":"KINEIS-3E","OBJECT_ID":"2024-172C","EPOCH":"2026-03-29T04:39:27.039744","MEAN_MOTION":14.72275128,"ECCENTRICITY":0.0001454,"INCLINATION":98.0345,"RA_OF_ASC_NODE":178.9666,"ARG_OF_PERICENTER":89.2334,"MEAN_ANOMALY":270.904,"EPHEMERIS_TYPE":0,"CLASSIFICATION_TYPE":"U","NORAD_CAT_ID":61222,"ELEMENT_SET_NO":999,"REV_AT_EPOCH":8158,"BSTAR":0.00022355,"MEAN_MOTION_DOT":1.362e-5,"MEAN_MOTION_DDOT":0},{"OBJECT_NAME":"KINEIS-3A","OBJECT_ID":"2024-172D","EPOCH":"2026-03-29T04:15:33.628320","MEAN_MOTION":14.72307533,"ECCENTRICITY":0.0001771,"INCLINATION":98.0336,"RA_OF_ASC_NODE":179.0453,"ARG_OF_PERICENTER":30.5933,"MEAN_ANOMALY":329.5377,"EPHEMERIS_TYPE":0,"CLASSIFICATION_TYPE":"U","NORAD_CAT_ID":61223,"ELEMENT_SET_NO":999,"REV_AT_EPOCH":8100,"BSTAR":0.00048523,"MEAN_MOTION_DOT":3.018e-5,"MEAN_MOTION_DDOT":0},{"OBJECT_NAME":"KINEIS-3B","OBJECT_ID":"2024-172E","EPOCH":"2026-03-29T05:29:11.460768","MEAN_MOTION":14.72294324,"ECCENTRICITY":0.0001797,"INCLINATION":98.0334,"RA_OF_ASC_NODE":179.1256,"ARG_OF_PERICENTER":21.81,"MEAN_ANOMALY":338.3184,"EPHEMERIS_TYPE":0,"CLASSIFICATION_TYPE":"U","NORAD_CAT_ID":61224,"ELEMENT_SET_NO":999,"REV_AT_EPOCH":8158,"BSTAR":0.00048956,"MEAN_MOTION_DOT":3.045e-5,"MEAN_MOTION_DDOT":0},{"OBJECT_NAME":"KINEIS-5C","OBJECT_ID":"2024-219A","EPOCH":"2026-03-29T04:53:48.841728","MEAN_MOTION":14.723408,"ECCENTRICITY":0.0004058,"INCLINATION":97.9342,"RA_OF_ASC_NODE":249.2299,"ARG_OF_PERICENTER":123.6962,"MEAN_ANOMALY":236.4632,"EPHEMERIS_TYPE":0,"CLASSIFICATION_TYPE":"U","NORAD_CAT_ID":62081,"ELEMENT_SET_NO":999,"REV_AT_EPOCH":7198,"BSTAR":0.00013615,"MEAN_MOTION_DOT":8.13e-6,"MEAN_MOTION_DDOT":0},{"OBJECT_NAME":"KINEIS-5D","OBJECT_ID":"2024-219B","EPOCH":"2026-03-29T04:05:16.188864","MEAN_MOTION":14.72331119,"ECCENTRICITY":0.0004002,"INCLINATION":97.9306,"RA_OF_ASC_NODE":249.1596,"ARG_OF_PERICENTER":134.3372,"MEAN_ANOMALY":225.8164,"EPHEMERIS_TYPE":0,"CLASSIFICATION_TYPE":"U","NORAD_CAT_ID":62082,"ELEMENT_SET_NO":999,"REV_AT_EPOCH":7198,"BSTAR":-0.00012854,"MEAN_MOTION_DOT":-8.61e-6,"MEAN_MOTION_DDOT":0}]
